[{"OBJECT_NAME":"STARLINK-36953","OBJECT_ID":"2026-039AA","EPOCH":"2026-03-20T20:00:01.999872","MEAN_MOTION":15.5983408,"ECCENTRICITY":0.00013289,"INCLINATION":42.9996,"RA_OF_ASC_NODE":346.9019,"ARG_OF_PERICENTER":257.1008,"MEAN_ANOMALY":226.6378,"EPHEMERIS_TYPE":0,"CLASSIFICATION_TYPE":"U","NORAD_CAT_ID":68010,"ELEMENT_SET_NO":999,"REV_AT_EPOCH":466,"BSTAR":-0.026527654,"MEAN_MOTION_DOT":-0.01931234,"MEAN_MOTION_DDOT":0},{"OBJECT_NAME":"STARLINK-36991","OBJECT_ID":"2026-039AB","EPOCH":"2026-03-20T20:00:01.999872","MEAN_MOTION":15.50671457,"ECCENTRICITY":0.00022539,"INCLINATION":42.9996,"RA_OF_ASC_NODE":348.0081,"ARG_OF_PERICENTER":252.3447,"MEAN_ANOMALY":144.1744,"EPHEMERIS_TYPE":0,"CLASSIFICATION_TYPE":"U","NORAD_CAT_ID":68011,"ELEMENT_SET_NO":999,"REV_AT_EPOCH":466,"BSTAR":-0.003362485,"MEAN_MOTION_DOT":-0.00193467,"MEAN_MOTION_DDOT":0},{"OBJECT_NAME":"STARLINK-36936","OBJECT_ID":"2026-039AC","EPOCH":"2026-03-20T20:00:01.999872","MEAN_MOTION":15.52335965,"ECCENTRICITY":0.00013516,"INCLINATION":42.9993,"RA_OF_ASC_NODE":347.2946,"ARG_OF_PERICENTER":256.9183,"MEAN_ANOMALY":68.2365,"EPHEMERIS_TYPE":0,"CLASSIFICATION_TYPE":"U","NORAD_CAT_ID":68012,"ELEMENT_SET_NO":999,"REV_AT_EPOCH":466,"BSTAR":-0.039325724,"MEAN_MOTION_DOT":-0.02173531,"MEAN_MOTION_DDOT":0},{"OBJECT_NAME":"STARLINK-36967","OBJECT_ID":"2026-039AD","EPOCH":"2026-03-20T20:00:01.999872","MEAN_MOTION":15.50602328,"ECCENTRICITY":0.0001445,"INCLINATION":42.9998,"RA_OF_ASC_NODE":347.9344,"ARG_OF_PERICENTER":264.3303,"MEAN_ANOMALY":162.1112,"EPHEMERIS_TYPE":0,"CLASSIFICATION_TYPE":"U","NORAD_CAT_ID":68013,"ELEMENT_SET_NO":999,"REV_AT_EPOCH":466,"BSTAR":-0.001483025,"MEAN_MOTION_DOT":-0.00086461,"MEAN_MOTION_DDOT":0},{"OBJECT_NAME":"STARLINK-36985","OBJECT_ID":"2026-039AE","EPOCH":"2026-03-20T20:00:01.999872","MEAN_MOTION":15.60323694,"ECCENTRICITY":0.00013531,"INCLINATION":42.9995,"RA_OF_ASC_NODE":346.8574,"ARG_OF_PERICENTER":258.9914,"MEAN_ANOMALY":242.5429,"EPHEMERIS_TYPE":0,"CLASSIFICATION_TYPE":"U","NORAD_CAT_ID":68014,"ELEMENT_SET_NO":999,"REV_AT_EPOCH":466,"BSTAR":-0.026041396,"MEAN_MOTION_DOT":-0.01932045,"MEAN_MOTION_DDOT":0},{"OBJECT_NAME":"STARLINK-36335","OBJECT_ID":"2026-040A","EPOCH":"2026-03-20T20:00:01.999872","MEAN_MOTION":15.75155873,"ECCENTRICITY":0.00015611,"INCLINATION":97.2821,"RA_OF_ASC_NODE":28.824,"ARG_OF_PERICENTER":76.2494,"MEAN_ANOMALY":125.5636,"EPHEMERIS_TYPE":0,"CLASSIFICATION_TYPE":"U","NORAD_CAT_ID":68015,"ELEMENT_SET_NO":999,"REV_AT_EPOCH":416,"BSTAR":-5.3622901e-5,"MEAN_MOTION_DOT":-8.108e-5,"MEAN_MOTION_DDOT":0},{"OBJECT_NAME":"STARLINK-36923","OBJECT_ID":"2026-040B","EPOCH":"2026-03-20T20:00:01.999872","MEAN_MOTION":15.75166584,"ECCENTRICITY":0.00016746,"INCLINATION":97.2834,"RA_OF_ASC_NODE":28.8279,"ARG_OF_PERICENTER":84.496,"MEAN_ANOMALY":123.3343,"EPHEMERIS_TYPE":0,"CLASSIFICATION_TYPE":"U","NORAD_CAT_ID":68016,"ELEMENT_SET_NO":999,"REV_AT_EPOCH":421,"BSTAR":9.5872362e-5,"MEAN_MOTION_DOT":0.0001418,"MEAN_MOTION_DDOT":0},{"OBJECT_NAME":"STARLINK-36568","OBJECT_ID":"2026-040C","EPOCH":"2026-03-20T20:00:01.999872","MEAN_MOTION":15.75159141,"ECCENTRICITY":0.00015175,"INCLINATION":97.2832,"RA_OF_ASC_NODE":28.8291,"ARG_OF_PERICENTER":88.4473,"MEAN_ANOMALY":123.3857,"EPHEMERIS_TYPE":0,"CLASSIFICATION_TYPE":"U","NORAD_CAT_ID":68017,"ELEMENT_SET_NO":999,"REV_AT_EPOCH":421,"BSTAR":0.0001753665,"MEAN_MOTION_DOT":0.00026072,"MEAN_MOTION_DDOT":0},{"OBJECT_NAME":"STARLINK-36930","OBJECT_ID":"2026-040D","EPOCH":"2026-03-20T20:00:01.999872","MEAN_MOTION":15.7512644,"ECCENTRICITY":0.00017685,"INCLINATION":97.2828,"RA_OF_ASC_NODE":28.8257,"ARG_OF_PERICENTER":92.4914,"MEAN_ANOMALY":111.3372,"EPHEMERIS_TYPE":0,"CLASSIFICATION_TYPE":"U","NORAD_CAT_ID":68018,"ELEMENT_SET_NO":999,"REV_AT_EPOCH":421,"BSTAR":0.00071260463,"MEAN_MOTION_DOT":0.00107211,"MEAN_MOTION_DDOT":0},{"OBJECT_NAME":"STARLINK-36921","OBJECT_ID":"2026-040E","EPOCH":"2026-03-20T20:00:01.999872","MEAN_MOTION":15.75683034,"ECCENTRICITY":0.00016776,"INCLINATION":97.284,"RA_OF_ASC_NODE":28.838,"ARG_OF_PERICENTER":83.6466,"MEAN_ANOMALY":141.8915,"EPHEMERIS_TYPE":0,"CLASSIFICATION_TYPE":"U","NORAD_CAT_ID":68019,"ELEMENT_SET_NO":999,"REV_AT_EPOCH":421,"BSTAR":-0.0049140477,"MEAN_MOTION_DOT":-0.00691454,"MEAN_MOTION_DDOT":0},{"OBJECT_NAME":"STARLINK-36928","OBJECT_ID":"2026-040F","EPOCH":"2026-03-20T20:00:01.999872","MEAN_MOTION":15.7529027,"ECCENTRICITY":0.00010295,"INCLINATION":97.284,"RA_OF_ASC_NODE":28.8339,"ARG_OF_PERICENTER":89.3664,"MEAN_ANOMALY":130.3876,"EPHEMERIS_TYPE":0,"CLASSIFICATION_TYPE":"U","NORAD_CAT_ID":68020,"ELEMENT_SET_NO":999,"REV_AT_EPOCH":421,"BSTAR":-0.0020442274,"MEAN_MOTION_DOT":-0.00295996,"MEAN_MOTION_DDOT":0},{"OBJECT_NAME":"STARLINK-36858","OBJECT_ID":"2026-040G","EPOCH":"2026-03-21T05:42:57.377376","MEAN_MOTION":15.80990924,"ECCENTRICITY":3.97e-5,"INCLINATION":97.2791,"RA_OF_ASC_NODE":29.4135,"ARG_OF_PERICENTER":140.6876,"MEAN_ANOMALY":219.4421,"EPHEMERIS_TYPE":0,"CLASSIFICATION_TYPE":"U","NORAD_CAT_ID":68021,"ELEMENT_SET_NO":999,"REV_AT_EPOCH":318,"BSTAR":0.0019286,"MEAN_MOTION_DOT":0.00389372,"MEAN_MOTION_DDOT":0},{"OBJECT_NAME":"STARLINK-36916","OBJECT_ID":"2026-040H","EPOCH":"2026-03-20T20:00:01.999872","MEAN_MOTION":15.7521805,"ECCENTRICITY":0.00012476,"INCLINATION":97.2831,"RA_OF_ASC_NODE":28.8375,"ARG_OF_PERICENTER":86.2822,"MEAN_ANOMALY":145.5118,"EPHEMERIS_TYPE":0,"CLASSIFICATION_TYPE":"U","NORAD_CAT_ID":68022,"ELEMENT_SET_NO":999,"REV_AT_EPOCH":421,"BSTAR":-0.0004171014,"MEAN_MOTION_DOT":-0.00061968,"MEAN_MOTION_DDOT":0},{"OBJECT_NAME":"STARLINK-36871","OBJECT_ID":"2026-040J","EPOCH":"2026-03-20T20:00:01.999872","MEAN_MOTION":15.75118036,"ECCENTRICITY":0.00018822,"INCLINATION":97.283,"RA_OF_ASC_NODE":28.838,"ARG_OF_PERICENTER":90.6675,"MEAN_ANOMALY":143.153,"EPHEMERIS_TYPE":0,"CLASSIFICATION_TYPE":"U","NORAD_CAT_ID":68023,"ELEMENT_SET_NO":999,"REV_AT_EPOCH":421,"BSTAR":0.00086891163,"MEAN_MOTION_DOT":0.00131076,"MEAN_MOTION_DDOT":0},{"OBJECT_NAME":"STARLINK-36891","OBJECT_ID":"2026-040K","EPOCH":"2026-03-20T20:00:01.999872","MEAN_MOTION":15.75145104,"ECCENTRICITY":0.00017769,"INCLINATION":97.283,"RA_OF_ASC_NODE":28.8396,"ARG_OF_PERICENTER":88.2507,"MEAN_ANOMALY":149.5754,"EPHEMERIS_TYPE":0,"CLASSIFICATION_TYPE":"U","NORAD_CAT_ID":68024,"ELEMENT_SET_NO":999,"REV_AT_EPOCH":421,"BSTAR":0.00036479151,"MEAN_MOTION_DOT":0.00054525,"MEAN_MOTION_DDOT":0},{"OBJECT_NAME":"STARLINK-36378","OBJECT_ID":"2026-040L","EPOCH":"2026-03-20T20:00:01.999872","MEAN_MOTION":15.75087807,"ECCENTRICITY":9.646e-5,"INCLINATION":97.2841,"RA_OF_ASC_NODE":28.8464,"ARG_OF_PERICENTER":111.3723,"MEAN_ANOMALY":134.435,"EPHEMERIS_TYPE":0,"CLASSIFICATION_TYPE":"U","NORAD_CAT_ID":68025,"ELEMENT_SET_NO":999,"REV_AT_EPOCH":416,"BSTAR":0.0010554808,"MEAN_MOTION_DOT":0.0015957,"MEAN_MOTION_DDOT":0}]
