STARLINK-36953
1 68010U 26039AA  26079.83335648 -.01931234  00000+0 -26528-1 0  9997
2 68010  42.9996 346.9019 0001328 257.1008 226.6378 15.59834080  4668
STARLINK-36991
1 68011U 26039AB  26079.83335648 -.00193467  00000+0 -33625-2 0  9992
2 68011  42.9996 348.0081 0002253 252.3447 144.1744 15.50671457  4662
STARLINK-36936
1 68012U 26039AC  26079.83335648 -.02173531  00000+0 -39326-1 0  9998
2 68012  42.9993 347.2946 0001351 256.9183  68.2365 15.52335965  4664
STARLINK-36967
1 68013U 26039AD  26079.83335648 -.00086461  00000+0 -14830-2 0  9996
2 68013  42.9998 347.9344 0001445 264.3303 162.1112 15.50602328  4662
STARLINK-36985
1 68014U 26039AE  26079.83335648 -.01932045  00000+0 -26041-1 0  9992
2 68014  42.9995 346.8574 0001353 258.9914 242.5429 15.60323694  4669
STARLINK-36335
1 68015U 26040A   26079.83335648 -.00008108  00000+0 -53623-4 0  9997
2 68015  97.2821  28.8240 0001561  76.2494 125.5636 15.75155873  4166
STARLINK-36923
1 68016U 26040B   26079.83335648  .00014180  00000+0  95872-4 0  9995
2 68016  97.2834  28.8279 0001674  84.4960 123.3343 15.75166584  4215
STARLINK-36568
1 68017U 26040C   26079.83335648  .00026072  00000+0  17537-3 0  9990
2 68017  97.2832  28.8291 0001517  88.4473 123.3857 15.75159141  4218
STARLINK-36930
1 68018U 26040D   26079.83335648  .00107211  00000+0  71260-3 0  9999
2 68018  97.2828  28.8257 0001768  92.4914 111.3372 15.75126440  4214
STARLINK-36921
1 68019U 26040E   26079.83335648 -.00691454  00000+0 -49140-2 0  9990
2 68019  97.2840  28.8380 0001677  83.6466 141.8915 15.75683034  4217
STARLINK-36928
1 68020U 26040F   26079.83335648 -.00295996  00000+0 -20442-2 0  9997
2 68020  97.2840  28.8339 0001029  89.3664 130.3876 15.75290270  4212
STARLINK-36858
1 68021U 26040G   26080.23816409  .00389372  00000+0  19286-2 0  9997
2 68021  97.2791  29.4135 0000397 140.6876 219.4421 15.80990924  3181
STARLINK-36916
1 68022U 26040H   26079.83335648 -.00061968  00000+0 -41710-3 0  9991
2 68022  97.2831  28.8375 0001247  86.2822 145.5118 15.75218050  4211
STARLINK-36871
1 68023U 26040J   26079.83335648  .00131076  00000+0  86891-3 0  9997
2 68023  97.2830  28.8380 0001882  90.6675 143.1530 15.75118036  4212
STARLINK-36891
1 68024U 26040K   26079.83335648  .00054525  00000+0  36479-3 0  9998
2 68024  97.2830  28.8396 0001776  88.2507 149.5754 15.75145104  4213
STARLINK-36378
1 68025U 26040L   26079.83335648  .00159570  00000+0  10555-2 0  9991
2 68025  97.2841  28.8464 0000964 111.3723 134.4350 15.75087807  4162
